0 FENGYUN 1C DEB
1 31247U 99025BMD 13283.72087998  .00000922  00000-0  67624-3 0   788
2 31247 099.3123 359.3286 0075318 335.0875 155.8143 13.97129035333373
0 FENGYUN 1C DEB
1 31247U 99025BMD 13285.72565561  .00001025  00000-0  74829-3 0   798
2 31247 099.3124 001.3592 0075407 329.5021 159.3024 13.97131936333659
0 FENGYUN 1C DEB
1 31247U 99025BMD 13287.73022567  .00001151  00000-0  83645-3 0   803
2 31247 099.3125 003.3896 0075505 323.9740 161.7180 13.97136497333932
0 FENGYUN 1C DEB
1 31247U 99025BMD 13289.73469751  .00001110  00000-0  80779-3 0   816
2 31247 099.3121 005.4200 0075620 318.4113 163.7119 13.97142951334219
0 FENGYUN 1C DEB
1 31247U 99025BMD 13291.74066307  .00001018  00000-0  74282-3 0   820
2 31247 099.3118 007.4519 0075780 312.8078 173.2959 13.97148133334491
0 FENGYUN 1C DEB
1 31247U 99025BMD 13293.74575315  .00000958  00000-0  70112-3 0   837
2 31247 099.3116 009.4827 0075975 307.2167 178.5044 13.97153187334775
0 FENGYUN 1C DEB
1 31247U 99025BMD 13295.88230682  .00000910  00000-0  66777-3 0   840
2 31247 099.3116 011.6468 0076183 301.2702 124.9778 13.97158270335073
